{"fetched_at":"2026-07-19T07:04:54.104Z","source":"https://celestrak.org/NORAD/elements/gp.php?GROUP=spire&FORMAT=JSON","constellation":"spire","records":[{"OBJECT_NAME":"LEMUR-2-HUBBLE-4","OBJECT_ID":"2025-135AP","EPOCH":"2026-07-18T19:48:53.744256","CLASSIFICATION_TYPE":"U","MEAN_MOTION":14.93691222,"ECCENTRICITY":0.0002953,"INCLINATION":97.7722,"RA_OF_ASC_NODE":313.3664,"ARG_OF_PERICENTER":153.5676,"MEAN_ANOMALY":206.5694,"EPHEMERIS_TYPE":0,"NORAD_CAT_ID":64565,"ELEMENT_SET_NO":999,"REV_AT_EPOCH":5859,"BSTAR":0.000045886,"MEAN_MOTION_DOT":0.00000429,"MEAN_MOTION_DDOT":0},{"OBJECT_NAME":"LEMUR-2-SEJONG-2","OBJECT_ID":"2025-135BL","EPOCH":"2026-07-18T18:59:09.490848","CLASSIFICATION_TYPE":"U","MEAN_MOTION":14.96928231,"ECCENTRICITY":0.0004189,"INCLINATION":97.7709,"RA_OF_ASC_NODE":314.6039,"ARG_OF_PERICENTER":201.511,"MEAN_ANOMALY":158.5936,"EPHEMERIS_TYPE":0,"NORAD_CAT_ID":64586,"ELEMENT_SET_NO":999,"REV_AT_EPOCH":5867,"BSTAR":0.00020427,"MEAN_MOTION_DOT":0.00002288,"MEAN_MOTION_DDOT":0},{"OBJECT_NAME":"LEMUR-2-HUBBLE-5","OBJECT_ID":"2025-135BT","EPOCH":"2026-07-18T18:23:20.663232","CLASSIFICATION_TYPE":"U","MEAN_MOTION":14.94217886,"ECCENTRICITY":0.0004586,"INCLINATION":97.7742,"RA_OF_ASC_NODE":313.9807,"ARG_OF_PERICENTER":220.8209,"MEAN_ANOMALY":139.2669,"EPHEMERIS_TYPE":0,"NORAD_CAT_ID":64840,"ELEMENT_SET_NO":999,"REV_AT_EPOCH":5862,"BSTAR":0.000034908,"MEAN_MOTION_DOT":0.00000317,"MEAN_MOTION_DDOT":0},{"OBJECT_NAME":"LEMUR-2-KARENDARRELL","OBJECT_ID":"2025-135BU","EPOCH":"2026-07-18T19:08:21.111648","CLASSIFICATION_TYPE":"U","MEAN_MOTION":15.00528659,"ECCENTRICITY":0.0012765,"INCLINATION":97.7722,"RA_OF_ASC_NODE":315.9668,"ARG_OF_PERICENTER":93.8513,"MEAN_ANOMALY":266.4171,"EPHEMERIS_TYPE":0,"NORAD_CAT_ID":64841,"ELEMENT_SET_NO":999,"REV_AT_EPOCH":5875,"BSTAR":0.00031621,"MEAN_MOTION_DOT":0.00003933,"MEAN_MOTION_DDOT":0},{"OBJECT_NAME":"LEMUR-2-LUCILLE-ROSE","OBJECT_ID":"2025-135BV","EPOCH":"2026-07-18T13:42:05.645088","CLASSIFICATION_TYPE":"U","MEAN_MOTION":15.0051088,"ECCENTRICITY":0.0015273,"INCLINATION":97.7705,"RA_OF_ASC_NODE":315.7752,"ARG_OF_PERICENTER":178.9427,"MEAN_ANOMALY":181.1832,"EPHEMERIS_TYPE":0,"NORAD_CAT_ID":65403,"ELEMENT_SET_NO":999,"REV_AT_EPOCH":5334,"BSTAR":0.00024788,"MEAN_MOTION_DOT":0.0000307,"MEAN_MOTION_DDOT":0},{"OBJECT_NAME":"LEMUR-2-AFFIE-WAUWIE","OBJECT_ID":"2025-248C","EPOCH":"2026-07-18T13:44:01.212000","CLASSIFICATION_TYPE":"U","MEAN_MOTION":15.28344711,"ECCENTRICITY":0.000904,"INCLINATION":45.3903,"RA_OF_ASC_NODE":304.7895,"ARG_OF_PERICENTER":269.7591,"MEAN_ANOMALY":90.2263,"EPHEMERIS_TYPE":0,"NORAD_CAT_ID":66295,"ELEMENT_SET_NO":999,"REV_AT_EPOCH":3939,"BSTAR":0.00044883,"MEAN_MOTION_DOT":0.00012349,"MEAN_MOTION_DDOT":0},{"OBJECT_NAME":"OTTER SDM","OBJECT_ID":"2025-276N","EPOCH":"2026-07-18T17:13:47.975232","CLASSIFICATION_TYPE":"U","MEAN_MOTION":15.20079289,"ECCENTRICITY":0.0004479,"INCLINATION":97.4196,"RA_OF_ASC_NODE":272.6757,"ARG_OF_PERICENTER":237.4406,"MEAN_ANOMALY":122.6396,"EPHEMERIS_TYPE":0,"NORAD_CAT_ID":66678,"ELEMENT_SET_NO":999,"REV_AT_EPOCH":3520,"BSTAR":0.00013166,"MEAN_MOTION_DOT":0.00002774,"MEAN_MOTION_DDOT":0},{"OBJECT_NAME":"LEMUR-2-STAS-GORBUK","OBJECT_ID":"2025-276W","EPOCH":"2026-07-18T17:45:59.696064","CLASSIFICATION_TYPE":"U","MEAN_MOTION":15.19678012,"ECCENTRICITY":0.0003828,"INCLINATION":97.4231,"RA_OF_ASC_NODE":272.749,"ARG_OF_PERICENTER":230.7972,"MEAN_ANOMALY":129.2923,"EPHEMERIS_TYPE":0,"NORAD_CAT_ID":66686,"ELEMENT_SET_NO":999,"REV_AT_EPOCH":3520,"BSTAR":0.0001264,"MEAN_MOTION_DOT":0.00002629,"MEAN_MOTION_DDOT":0},{"OBJECT_NAME":"LEMUR-2-TEODOR","OBJECT_ID":"2025-276DG","EPOCH":"2026-07-18T16:32:41.409024","CLASSIFICATION_TYPE":"U","MEAN_MOTION":15.2135782,"ECCENTRICITY":0.0002182,"INCLINATION":97.4137,"RA_OF_ASC_NODE":272.9752,"ARG_OF_PERICENTER":85.2409,"MEAN_ANOMALY":274.9076,"EPHEMERIS_TYPE":0,"NORAD_CAT_ID":66768,"ELEMENT_SET_NO":999,"REV_AT_EPOCH":3523,"BSTAR":0.00012869,"MEAN_MOTION_DOT":0.00002814,"MEAN_MOTION_DDOT":0},{"OBJECT_NAME":"LEMUR-2-LAILA","OBJECT_ID":"2025-276DQ","EPOCH":"2026-07-18T17:23:09.323808","CLASSIFICATION_TYPE":"U","MEAN_MOTION":15.21584359,"ECCENTRICITY":0.0002868,"INCLINATION":97.416,"RA_OF_ASC_NODE":273.1506,"ARG_OF_PERICENTER":89.1323,"MEAN_ANOMALY":271.0242,"EPHEMERIS_TYPE":0,"NORAD_CAT_ID":66776,"ELEMENT_SET_NO":999,"REV_AT_EPOCH":3524,"BSTAR":0.00012555,"MEAN_MOTION_DOT":0.00002762,"MEAN_MOTION_DDOT":0},{"OBJECT_NAME":"LEMUR-2-CELIJO-SB-PK","OBJECT_ID":"2025-276DW","EPOCH":"2026-07-18T17:16:24.708288","CLASSIFICATION_TYPE":"U","MEAN_MOTION":15.00305865,"ECCENTRICITY":0.0006766,"INCLINATION":97.5187,"RA_OF_ASC_NODE":269.4564,"ARG_OF_PERICENTER":55.8337,"MEAN_ANOMALY":304.3528,"EPHEMERIS_TYPE":0,"NORAD_CAT_ID":66781,"ELEMENT_SET_NO":999,"REV_AT_EPOCH":2735,"BSTAR":0.00023474,"MEAN_MOTION_DOT":0.00002886,"MEAN_MOTION_DDOT":0},{"OBJECT_NAME":"LEMUR-2-FINNIAN","OBJECT_ID":"2025-276DX","EPOCH":"2026-07-18T18:08:29.929344","CLASSIFICATION_TYPE":"U","MEAN_MOTION":15.0063813,"ECCENTRICITY":0.0007114,"INCLINATION":97.536,"RA_OF_ASC_NODE":269.7672,"ARG_OF_PERICENTER":347.4138,"MEAN_ANOMALY":12.6908,"EPHEMERIS_TYPE":0,"NORAD_CAT_ID":66782,"ELEMENT_SET_NO":999,"REV_AT_EPOCH":2473,"BSTAR":0.0001094,"MEAN_MOTION_DOT":0.00001326,"MEAN_MOTION_DDOT":0},{"OBJECT_NAME":"LEMUR-2-STARLIGHT","OBJECT_ID":"2025-276DY","EPOCH":"2026-07-18T17:44:52.664352","CLASSIFICATION_TYPE":"U","MEAN_MOTION":14.99381177,"ECCENTRICITY":0.0014676,"INCLINATION":97.5234,"RA_OF_ASC_NODE":269.3007,"ARG_OF_PERICENTER":36.6772,"MEAN_ANOMALY":323.5453,"EPHEMERIS_TYPE":0,"NORAD_CAT_ID":66783,"ELEMENT_SET_NO":999,"REV_AT_EPOCH":3492,"BSTAR":0.00029499,"MEAN_MOTION_DOT":0.0000356,"MEAN_MOTION_DDOT":0},{"OBJECT_NAME":"LEMUR-2-TARTIFLETTE","OBJECT_ID":"2025-276DZ","EPOCH":"2026-07-18T17:42:37.900224","CLASSIFICATION_TYPE":"U","MEAN_MOTION":14.99363603,"ECCENTRICITY":0.0013874,"INCLINATION":97.5232,"RA_OF_ASC_NODE":269.3071,"ARG_OF_PERICENTER":45.2874,"MEAN_ANOMALY":314.9477,"EPHEMERIS_TYPE":0,"NORAD_CAT_ID":66784,"ELEMENT_SET_NO":999,"REV_AT_EPOCH":3492,"BSTAR":0.00026962,"MEAN_MOTION_DOT":0.00003247,"MEAN_MOTION_DDOT":0},{"OBJECT_NAME":"LEMUR-2-VUKASIN","OBJECT_ID":"2025-276EA","EPOCH":"2026-07-18T16:55:51.712032","CLASSIFICATION_TYPE":"U","MEAN_MOTION":15.00563053,"ECCENTRICITY":0.0002493,"INCLINATION":97.5209,"RA_OF_ASC_NODE":269.6401,"ARG_OF_PERICENTER":43.6879,"MEAN_ANOMALY":316.4542,"EPHEMERIS_TYPE":0,"NORAD_CAT_ID":66785,"ELEMENT_SET_NO":999,"REV_AT_EPOCH":3487,"BSTAR":0.00017584,"MEAN_MOTION_DOT":0.00002162,"MEAN_MOTION_DDOT":0},{"OBJECT_NAME":"LEMUR-2-HOTSPUR-TOM","OBJECT_ID":"2025-276EB","EPOCH":"2026-07-18T17:34:54.665760","CLASSIFICATION_TYPE":"U","MEAN_MOTION":14.9926137,"ECCENTRICITY":0.0013676,"INCLINATION":97.5212,"RA_OF_ASC_NODE":269.2747,"ARG_OF_PERICENTER":36.9937,"MEAN_ANOMALY":323.2227,"EPHEMERIS_TYPE":0,"NORAD_CAT_ID":66786,"ELEMENT_SET_NO":999,"REV_AT_EPOCH":3485,"BSTAR":0.00022817,"MEAN_MOTION_DOT":0.00002731,"MEAN_MOTION_DDOT":0}]}
