LEMUR-2-HUBBLE-4        
1 64565U 25135AP  26199.82562204  .00000429  00000+0  45886-4 0  9997
2 64565  97.7722 313.3664 0002953 153.5676 206.5694 14.93691222 58598
LEMUR-2-SEJONG-2        
1 64586U 25135BL  26199.79108207  .00002288  00000+0  20427-3 0  9993
2 64586  97.7709 314.6039 0004189 201.5110 158.5936 14.96928231 58676
LEMUR-2-HUBBLE-5        
1 64840U 25135BT  26199.76621138  .00000317  00000+0  34908-4 0  9997
2 64840  97.7742 313.9807 0004586 220.8209 139.2669 14.94217886 58624
LEMUR-2-KARENDARRELL    
1 64841U 25135BU  26199.79746657  .00003933  00000+0  31621-3 0  9990
2 64841  97.7722 315.9668 0012765  93.8513 266.4171 15.00528659 58750
LEMUR-2-LUCILLE-ROSE    
1 65403U 25135BV  26199.57089867  .00003070  00000+0  24788-3 0  9992
2 65403  97.7705 315.7752 0015273 178.9427 181.1832 15.00510880 53348
LEMUR-2-AFFIE-WAUWIE    
1 66295U 25248C   26199.57223625  .00012349  00000+0  44883-3 0  9996
2 66295  45.3903 304.7895 0009040 269.7591  90.2263 15.28344711 39394
OTTER SDM               
1 66678U 25276N   26199.71791638  .00002774  00000+0  13166-3 0  9993
2 66678  97.4196 272.6757 0004479 237.4406 122.6396 15.20079289 35209
LEMUR-2-STAS-GORBUK     
1 66686U 25276W   26199.74027426  .00002629  00000+0  12640-3 0  9997
2 66686  97.4231 272.7490 0003828 230.7972 129.2923 15.19678012 35200
LEMUR-2-TEODOR          
1 66768U 25276DG  26199.68936816  .00002814  00000+0  12869-3 0  9992
2 66768  97.4137 272.9752 0002182  85.2409 274.9076 15.21357820 35233
LEMUR-2-LAILA           
1 66776U 25276DQ  26199.72441347  .00002762  00000+0  12555-3 0  9990
2 66776  97.4160 273.1506 0002868  89.1323 271.0242 15.21584359 35240
LEMUR-2-CELIJO-SB-PK    
1 66781U 25276DW  26199.71973042  .00002886  00000+0  23474-3 0  9996
2 66781  97.5187 269.4564 0006766  55.8337 304.3528 15.00305865 27354
LEMUR-2-FINNIAN         
1 66782U 25276DX  26199.75590196  .00001326  00000+0  10940-3 0  9998
2 66782  97.5360 269.7672 0007114 347.4138  12.6908 15.00638130 24732
LEMUR-2-STARLIGHT       
1 66783U 25276DY  26199.73949843  .00003560  00000+0  29499-3 0  9995
2 66783  97.5234 269.3007 0014676  36.6772 323.5453 14.99381177 34927
LEMUR-2-TARTIFLETTE     
1 66784U 25276DZ  26199.73793866  .00003247  00000+0  26962-3 0  9992
2 66784  97.5232 269.3071 0013874  45.2874 314.9477 14.99363603 34929
LEMUR-2-VUKASIN         
1 66785U 25276EA  26199.70545963  .00002162  00000+0  17584-3 0  9998
2 66785  97.5209 269.6401 0002493  43.6879 316.4542 15.00563053 34874
LEMUR-2-HOTSPUR-TOM     
1 66786U 25276EB  26199.73257715  .00002731  00000+0  22817-3 0  9994
2 66786  97.5212 269.2747 0013676  36.9937 323.2227 14.99261370 34851
